STARLINK-3343           
1 50822U 22001V   26068.54447942 -.00000477  00000+0 -11880-4 0  9994
2 50822  53.2169 169.7745 0000876 121.0402 239.0677 15.08848779230382
DISKSAT D               
1 67221U 25305C   26068.55257179  .00011599  00000+0  76841-3 0  9999
2 67221  45.0023 251.6339 0003712 319.2749  40.7848 15.07416577 12277
